start=new Date('2022-12-04T00:00:00.000Z').valueOf();
sats=[{"MEAN_ELEMENT_THEORY":"SGP4","OBJECT_TYPE":"PAYLOAD","EPOCH":"2022-12-03T18:38:55.398048","MEAN_MOTION_DDOT":"0.0000000000000","CENTER_NAME":"EARTH","SEMIMAJOR_AXIS":"6917.888","OBJECT_ID":"2022-016AN","TIME_SYSTEM":"UTC","INCLINATION":"53.2169","RA_OF_ASC_NODE":"259.8326","EPHEMERIS_TYPE":"0","ARG_OF_PERICENTER":"37.9279","MEAN_ANOMALY":"322.1933","ELEMENT_SET_NO":"999","COUNTRY_CODE":"US","CLASSIFICATION_TYPE":"U","RCS_SIZE":"LARGE","DECAY_DATE":null,"ECCENTRICITY":"0.00031320","LAUNCH_DATE":"2022-02-21","TLE_LINE2":"2 51750  53.2169 259.8326 0003132  37.9279 322.1933 15.08837649 43761","FILE":"3680595","BSTAR":"-0.00003510100000","APOAPSIS":"541.919","REV_AT_EPOCH":"4376","GP_ID":"219480129","SITE":"AFETR","NORAD_CAT_ID":"51750","TLE_LINE1":"1 51750U 22016AN  22337.77703007 -.00000847  00000-0 -35101-4 0  9992","MEAN_MOTION":"15.08837649","OBJECT_NAME":"STARLINK-3505","PERIAPSIS":"537.586","MEAN_MOTION_DOT":"-0.00000847","PERIOD":"95.438","REF_FRAME":"TEME"},{"PERIAPSIS":"538.061","MEAN_MOTION_DOT":"0.00000170","REF_FRAME":"TEME","PERIOD":"95.438","MEAN_MOTION":"15.08831288","OBJECT_NAME":"STARLINK-3506","GP_ID":"219449101","NORAD_CAT_ID":"51751","SITE":"AFETR","TLE_LINE1":"1 51751U 22016AP  22337.52311159  .00000170  00000-0  28838-4 0  9995","CLASSIFICATION_TYPE":"U","RCS_SIZE":"LARGE","COUNTRY_CODE":"US","TLE_LINE2":"2 51751  53.2167 260.9760 0002474  35.1587 324.9568 15.08831288 43728","FILE":"3680253","BSTAR":"0.00002883800000","LAUNCH_DATE":"2022-02-21","DECAY_DATE":null,"ECCENTRICITY":"0.00024740","REV_AT_EPOCH":"4372","APOAPSIS":"541.484","MEAN_ANOMALY":"324.9568","ELEMENT_SET_NO":"999","ARG_OF_PERICENTER":"35.1587","EPHEMERIS_TYPE":"0","CENTER_NAME":"EARTH","SEMIMAJOR_AXIS":"6917.907","INCLINATION":"53.2167","OBJECT_ID":"2022-016AP","TIME_SYSTEM":"UTC","RA_OF_ASC_NODE":"260.9760","MEAN_ELEMENT_THEORY":"SGP4","MEAN_MOTION_DDOT":"0.0000000000000","OBJECT_TYPE":"PAYLOAD","EPOCH":"2022-12-03T12:33:16.841376"},{"EPHEMERIS_TYPE":"0","ARG_OF_PERICENTER":"35.7447","MEAN_ANOMALY":"324.3729","ELEMENT_SET_NO":"999","MEAN_ELEMENT_THEORY":"SGP4","EPOCH":"2022-12-03T12:12:05.035104","OBJECT_TYPE":"PAYLOAD","MEAN_MOTION_DDOT":"0.0000000000000","SEMIMAJOR_AXIS":"6917.903","CENTER_NAME":"EARTH","OBJECT_ID":"2022-016AQ","TIME_SYSTEM":"UTC","INCLINATION":"53.2183","RA_OF_ASC_NODE":"261.0408","MEAN_MOTION":"15.08832608","OBJECT_NAME":"STARLINK-3511","PERIAPSIS":"537.865","MEAN_MOTION_DOT":"-0.00000825","PERIOD":"95.438","REF_FRAME":"TEME","COUNTRY_CODE":"US","RCS_SIZE":"LARGE","CLASSIFICATION_TYPE":"U","ECCENTRICITY":"0.00027510","DECAY_DATE":null,"TLE_LINE2":"2 51752  53.2183 261.0408 0002751  35.7447 324.3729 15.08832608 43727","LAUNCH_DATE":"2022-02-21","FILE":"3680253","BSTAR":"-0.00003370700000","REV_AT_EPOCH":"4372","APOAPSIS":"541.671","GP_ID":"219449353","SITE":"AFETR","NORAD_CAT_ID":"51752","TLE_LINE1":"1 51752U 22016AQ  22337.50839161 -.00000825  00000-0 -33707-4 0  9992"},{"PERIAPSIS":"537.565","MEAN_MOTION_DOT":"0.00000732","PERIOD":"95.437","REF_FRAME":"TEME","MEAN_MOTION":"15.08841880","OBJECT_NAME":"STARLINK-3507","GP_ID":"219479883","SITE":"AFETR","NORAD_CAT_ID":"51753","TLE_LINE1":"1 51753U 22016AR  22337.78071140  .00000732  00000-0  64113-4 0  9998","COUNTRY_CODE":"US","RCS_SIZE":"LARGE","CLASSIFICATION_TYPE":"U","DECAY_DATE":null,"ECCENTRICITY":"0.00031430","LAUNCH_DATE":"2022-02-21","TLE_LINE2":"2 51753  53.2171 259.8179 0003143  37.9202 322.2011 15.08841880 43761","FILE":"3680595","BSTAR":"0.00006411300000","REV_AT_EPOCH":"4376","APOAPSIS":"541.914","MEAN_ANOMALY":"322.2011","ELEMENT_SET_NO":"999","EPHEMERIS_TYPE":"0","ARG_OF_PERICENTER":"37.9202","CENTER_NAME":"EARTH","SEMIMAJOR_AXIS":"6917.875","OBJECT_ID":"2022-016AR","TIME_SYSTEM":"UTC","INCLINATION":"53.2171","RA_OF_ASC_NODE":"259.8179","MEAN_ELEMENT_THEORY":"SGP4","EPOCH":"2022-12-03T18:44:13.464960","OBJECT_TYPE":"PAYLOAD","MEAN_MOTION_DDOT":"0.0000000000000"},{"EPHEMERIS_TYPE":"0","ARG_OF_PERICENTER":"32.6890","MEAN_ANOMALY":"327.4297","ELEMENT_SET_NO":"999","MEAN_ELEMENT_THEORY":"SGP4","MEAN_MOTION_DDOT":"0.0000000000000","EPOCH":"2022-12-03T12:02:51.560160","OBJECT_TYPE":"PAYLOAD","SEMIMAJOR_AXIS":"6917.890","CENTER_NAME":"EARTH","INCLINATION":"53.2179","OBJECT_ID":"2022-016AS","TIME_SYSTEM":"UTC","RA_OF_ASC_NODE":"261.0647","MEAN_MOTION":"15.08836729","OBJECT_NAME":"STARLINK-3457","PERIAPSIS":"537.565","MEAN_MOTION_DOT":"0.00002338","REF_FRAME":"TEME","PERIOD":"95.438","CLASSIFICATION_TYPE":"U","RCS_SIZE":"LARGE","COUNTRY_CODE":"US","TLE_LINE2":"2 51754  53.2179 261.0647 0003166  32.6890 327.4297 15.08836729 43720","FILE":"3680253","BSTAR":"0.00016501000000","LAUNCH_DATE":"2022-02-21","DECAY_DATE":null,"ECCENTRICITY":"0.00031660","REV_AT_EPOCH":"4372","APOAPSIS":"541.946","GP_ID":"219448352","NORAD_CAT_ID":"51754","SITE":"AFETR","TLE_LINE1":"1 51754U 22016AS  22337.50198565  .00002338  00000-0  16501-3 0  9991"},{"ELEMENT_SET_NO":"999","MEAN_ANOMALY":"323.8638","EPHEMERIS_TYPE":"0","ARG_OF_PERICENTER":"36.2572","RA_OF_ASC_NODE":"261.0555","INCLINATION":"53.2168","OBJECT_ID":"2022-016AT","TIME_SYSTEM":"UTC","SEMIMAJOR_AXIS":"6917.909","CENTER_NAME":"EARTH","MEAN_MOTION_DDOT":"0.0000000000000","OBJECT_TYPE":"PAYLOAD","EPOCH":"2022-12-03T12:06:47.371680","MEAN_ELEMENT_THEORY":"SGP4","REF_FRAME":"TEME","PERIOD":"95.438","MEAN_MOTION_DOT":"-0.00000486","PERIAPSIS":"537.547","OBJECT_NAME":"STARLINK-3460","MEAN_MOTION":"15.08830684","TLE_LINE1":"1 51755U 22016AT  22337.50471495 -.00000486  00000-0 -12371-4 0  9994","NORAD_CAT_ID":"51755","SITE":"AFETR","GP_ID":"219448602","APOAPSIS":"542.001","REV_AT_EPOCH":"4372","FILE":"3680253","TLE_LINE2":"2 51755  53.2168 261.0555 0003219  36.2572 323.8638 15.08830684 43726","BSTAR":"-0.00001237100000","LAUNCH_DATE":"2022-02-21","DECAY_DATE":null,"ECCENTRICITY":"0.00032190","RCS_SIZE":"MEDIUM","CLASSIFICATION_TYPE":"U","COUNTRY_CODE":"US"},{"EPHEMERIS_TYPE":"0","ARG_OF_PERICENTER":"37.3508","MEAN_ANOMALY":"322.7678","ELEMENT_SET_NO":"999","MEAN_ELEMENT_THEORY":"SGP4","OBJECT_TYPE":"PAYLOAD","EPOCH":"2022-12-03T19:21:19.160064","MEAN_MOTION_DDOT":"0.0000000000000","CENTER_NAME":"EARTH","SEMIMAJOR_AXIS":"6917.902","RA_OF_ASC_NODE":"259.7040","TIME_SYSTEM":"UTC","OBJECT_ID":"2022-016AU","INCLINATION":"53.2172","MEAN_MOTION":"15.08832996","OBJECT_NAME":"STARLINK-3513","MEAN_MOTION_DOT":"-0.00000925","PERIAPSIS":"537.838","PERIOD":"95.438","REF_FRAME":"TEME","COUNTRY_CODE":"US","CLASSIFICATION_TYPE":"U","RCS_SIZE":"LARGE","APOAPSIS":"541.696","REV_AT_EPOCH":"4377","ECCENTRICITY":"0.00027880","DECAY_DATE":null,"TLE_LINE2":"2 51756  53.2172 259.7040 0002788  37.3508 322.7678 15.08832996 43771","BSTAR":"-0.00004000300000","FILE":"3680595","LAUNCH_DATE":"2022-02-21","GP_ID":"219481131","TLE_LINE1":"1 51756U 22016AU  22337.80647176 -.00000925  00000-0 -40003-4 0  9990","SITE":"AFETR","NORAD_CAT_ID":"51756"},{"FILE":"3680595","TLE_LINE2":"2 51757  53.2194 259.7256 0002722  29.2476 330.8668 15.08831278 43778","BSTAR":"0.00004522600000","LAUNCH_DATE":"2022-02-21","ECCENTRICITY":"0.00027220","DECAY_DATE":null,"REV_AT_EPOCH":"4377","APOAPSIS":"541.655","CLASSIFICATION_TYPE":"U","RCS_SIZE":"LARGE","COUNTRY_CODE":"US","NORAD_CAT_ID":"51757","SITE":"AFETR","TLE_LINE1":"1 51757U 22016AV  22337.80278676  .00000431  00000-0  45226-4 0  9998","GP_ID":"219480383","OBJECT_NAME":"STARLINK-3459","MEAN_MOTION":"15.08831278","REF_FRAME":"TEME","PERIOD":"95.438","PERIAPSIS":"537.889","MEAN_MOTION_DOT":"0.00000431","MEAN_MOTION_DDOT":"0.0000000000000","OBJECT_TYPE":"PAYLOAD","EPOCH":"2022-12-03T19:16:00.776064","MEAN_ELEMENT_THEORY":"SGP4","INCLINATION":"53.2194","OBJECT_ID":"2022-016AV","TIME_SYSTEM":"UTC","RA_OF_ASC_NODE":"259.7256","SEMIMAJOR_AXIS":"6917.907","CENTER_NAME":"EARTH","EPHEMERIS_TYPE":"0","ARG_OF_PERICENTER":"29.2476","ELEMENT_SET_NO":"999","MEAN_ANOMALY":"330.8668"},{"CENTER_NAME":"EARTH","SEMIMAJOR_AXIS":"6917.909","INCLINATION":"53.2181","OBJECT_ID":"2022-016AW","TIME_SYSTEM":"UTC","RA_OF_ASC_NODE":"259.7290","MEAN_ELEMENT_THEORY":"SGP4","MEAN_MOTION_DDOT":"0.0000000000000","OBJECT_TYPE":"PAYLOAD","EPOCH":"2022-12-03T19:12:05.999616","MEAN_ANOMALY":"331.1593","ELEMENT_SET_NO":"999","EPHEMERIS_TYPE":"0","ARG_OF_PERICENTER":"28.9560","GP_ID":"219480130","NORAD_CAT_ID":"51758","SITE":"AFETR","TLE_LINE1":"1 51758U 22016AW  22337.80006944 -.00001182  00000-0 -56183-4 0  9996","CLASSIFICATION_TYPE":"U","RCS_SIZE":"LARGE","COUNTRY_CODE":"US","LAUNCH_DATE":"2022-02-21","TLE_LINE2":"2 51758  53.2181 259.7290 0002898  28.9560 331.1593 15.08830520 44914","FILE":"3680595","BSTAR":"-0.00005618300000","ECCENTRICITY":"0.00028980","DECAY_DATE":null,"APOAPSIS":"541.779","REV_AT_EPOCH":"4491","PERIAPSIS":"537.770","MEAN_MOTION_DOT":"-0.00001182","REF_FRAME":"TEME","PERIOD":"95.438","MEAN_MOTION":"15.08830520","OBJECT_NAME":"STARLINK-3458"},{"TIME_SYSTEM":"UTC","OBJECT_ID":"2022-016AX","INCLINATION":"53.2166","RA_OF_ASC_NODE":"259.7377","SEMIMAJOR_AXIS":"6917.892","CENTER_NAME":"EARTH","OBJECT_TYPE":"PAYLOAD","EPOCH":"2022-12-03T19:10:42.589920","MEAN_MOTION_DDOT":"0.0000000000000","MEAN_ELEMENT_THEORY":"SGP4","ELEMENT_SET_NO":"999","MEAN_ANOMALY":"322.5947","EPHEMERIS_TYPE":"0","ARG_OF_PERICENTER":"37.5215","SITE":"AFETR","NORAD_CAT_ID":"51759","TLE_LINE1":"1 51759U 22016AX  22337.79910405 -.00000136  00000-0  95540-5 0  9999","GP_ID":"219481385","ECCENTRICITY":"0.00024430","DECAY_DATE":null,"BSTAR":"0.00000955400000","TLE_LINE2":"2 51759  53.2166 259.7377 0002443  37.5215 322.5947 15.08836351 43771","FILE":"3680595","LAUNCH_DATE":"2022-02-21","APOAPSIS":"541.447","REV_AT_EPOCH":"4377","COUNTRY_CODE":"US","CLASSIFICATION_TYPE":"U","RCS_SIZE":"LARGE","PERIOD":"95.438","REF_FRAME":"TEME","PERIAPSIS":"538.067","MEAN_MOTION_DOT":"-0.00000136","OBJECT_NAME":"STARLINK-3456","MEAN_MOTION":"15.08836351"}];
